satname,norad_id,inclination_deg,eccentricity,mean_motion_rev_per_day,perigee_km,apogee_km,l1,l2
STARLINK-1458,45675,53.0533,0.0006902,15.43164244,432.0737704553612,441.48107832678943,1 45675U 20035U   26068.35421329  .00044975  00000+0  10019-2 0  9999,2 45675  53.0533  57.0913 0006902  77.6048 282.5729 15.43164244318801
STARLINK-1460,45676,53.1564,0.0001279,15.29324895,476.95234300831,478.70609916766443,1 45676U 20035V   26068.91668981  .00062062  00000+0  21472-2 0  9991,2 45676  53.1564  63.8540 0001279  92.1764 239.6325 15.29324895  5584
STARLINK-1392,45677,53.157,0.0001175,15.29339802,476.9790985820682,478.5902401743724,1 45677U 20035W   26068.39553183 -.00006861  00000+0 -22578-3 0  9997,2 45677  53.1570  66.1264 0001175  87.1028 273.0107 15.29339802318719
STARLINK-1394,45679,53.0499,0.000287,15.49750086,415.50621111934925,419.40688181502173,1 45679U 20035Y   26068.29458195  .00093840  00000+0  16490-2 0  9991,2 45679  53.0499  38.4615 0002870 117.7699 242.3600 15.49750086319091
STARLINK-1402,45685,53.0494,7.88e-05,15.44772661,431.50950228785496,432.5827871514639,1 45685U 20035AE  26068.26662080  .00081749  00000+0  17105-2 0  9994,2 45685  53.0494  25.4082 0000788 198.8556 161.2420 15.44772661319283
STARLINK-1404,45686,53.1608,0.0001371,15.30218852,474.21919447168966,476.0983681749276,1 45686U 20035AF  26068.23866449  .00006438  00000+0  22916-3 0  9996,2 45686  53.1608  51.7959 0001371  99.8760 260.2396 15.30218852318905
STARLINK-1413,45689,53.1619,0.0001253,15.30208437,474.33115631601504,476.04860003168596,1 45689U 20035AJ  26068.24496364  .00002843  00000+0  10806-3 0  9996,2 45689  53.1619  51.6432 0001253  94.2274 265.8870 15.30208437318820
STARLINK-1417,45693,53.0515,0.0002128,15.12514223,527.0657600652858,530.0052398812732,1 45693U 20035AN  26068.26760737  .00034834  00000+0  19844-2 0  9996,2 45693  53.0515  56.2233 0002128 233.0338 127.0459 15.12514223318831
STARLINK-1420,45695,53.0536,0.0004366,15.53714087,402.93129002209025,408.85510519063973,1 45695U 20035AQ  26068.91668981  .00116763  00000+0  17735-2 0  9997,2 45695  53.0536  21.3217 0004366 113.0488 142.9061 15.53714087  5866
STARLINK-1422,45696,53.1601,0.0001248,15.30216632,474.3101175743295,476.02070185579487,1 45696U 20035AR  26068.31765243  .00006353  00000+0  22631-3 0  9996,2 45696  53.1601  51.3097 0001248  97.1676 262.9467 15.30216632318911
STARLINK-1351,45697,53.0537,0.0003591,15.5224201,407.74394891525026,412.6193193582876,1 45697U 20035AS  26068.13970887  .00110196  00000+0  17672-2 0  9998,2 45697  53.0537  24.2744 0003591 121.7896 238.3464 15.52242010319286
STARLINK-1398,45699,53.0344,0.0003852,15.95829329,283.4375201861985,288.57157483440096,1 45699U 20035AU  26068.91668981  .00311380  49598-4  75496-3 0  9992,2 45699  53.0344 298.0265 0003852 196.7197 303.9743 15.95829329  6002
STARLINK-1400,45700,53.0512,0.0007898,15.50558542,409.72891408946725,420.4595021057785,1 45700U 20035AV  26068.81702053  .00111194  00000+0  18916-2 0  9997,2 45700  53.0512  22.3487 0007898  95.6482 264.5427 15.50558542319368
STARLINK-1403,45701,53.1107,0.0002187,15.19218642,506.6947279019141,509.70681204250013,1 45701U 20035AW  26068.91668981  .01818144  00000+0  77560-1 0  9999,2 45701  53.1107  35.2913 0002187  76.8138 326.7087 15.19218642  5737
STARLINK-1407,45703,53.035,0.0010492,15.59959996,380.67395689088244,394.8715419090231,1 45703U 20035AY  26068.82690556  .00144861  00000+0  17333-2 0  9994,2 45703  53.0350 315.0932 0010492 106.0789 254.1379 15.59959996320314
STARLINK-1411,45706,53.0447,0.0005287,15.61997096,378.3148748100957,385.46292619728956,1 45706U 20035BB  26068.18163631  .00104763  00000+0  11686-2 0  9997,2 45706  53.0447 343.9187 0005287 129.8898 230.2581 15.61997096319848
STARLINK-1423,45710,53.0523,0.0007738,15.52734851,403.4934518930877,413.99683069495495,1 45710U 20035BF  26068.26993972  .00104188  00000+0  16417-2 0  9998,2 45710  53.0523  24.0364 0007738 108.2998 251.8853 15.52734851319284
STARLINK-1433,45711,53.051,0.0007813,15.54762092,397.54630606926,408.1422674279338,1 45711U 20035BG  26068.87369762  .00090948  00000+0  13344-2 0  9994,2 45711  53.0510  20.1674 0007813 104.2859 255.9019 15.54762092319399
STARLINK-1434,45712,53.0547,0.0005343,15.26724568,481.9444621541925,489.27906408246145,1 45712U 20035BH  26068.24137979  .00054112  00000+0  20295-2 0  9995,2 45712  53.0547  22.1128 0005343  88.0400 272.1210 15.26724568319325
STARLINK-1465,45731,53.0523,0.0002775,15.49944768,415.0018714354637,418.7731100278197,1 45731U 20038B   26068.64502438  .00106119  00000+0  18481-2 0  9998,2 45731  53.0523 223.3780 0002775 263.9704  96.0987 15.49944768316373
STARLINK-1471,45735,53.0461,7.35e-05,15.48889608,419.4734914290457,420.47281362146623,1 45735U 20038F   26068.51727100  .00025966  00000+0  48031-3 0  9998,2 45735  53.0461 142.8505 0000735 252.2719 107.8208 15.48889608317502
STARLINK-1480,45741,53.0516,0.0006877,15.47630667,418.98173368669995,428.33692435763714,1 45741U 20038M   26068.73056021  .00027583  00000+0  53203-3 0  9990,2 45741  53.0516 217.0565 0006877 179.8885 180.2124 15.47630667316488
STARLINK-1500,45744,53.0377,0.0001932,15.34798508,460.1976251922679,462.8404682887285,1 45744U 20038Q   26068.61256777  .00030067  00000+0  88610-3 0  9991,2 45744  53.0377 193.1151 0001932 252.7166 107.3624 15.34798508316807
STARLINK-1504,45746,53.0223,4.1e-05,15.53161848,407.2229682841844,407.77939061489815,1 45746U 20038S   26068.49364705  .00033597  00000+0  53149-3 0  9990,2 45746  53.0223 143.1328 0000410 171.2564 188.8452 15.53161848317487
STARLINK-1506,45747,53.0733,0.0002514,15.26134655,485.6544031441308,489.1063852899433,1 45747U 20038T   26068.66028804  .00025380  00000+0  97997-3 0  9997,2 45747  53.0733 202.5028 0002514 227.7836 132.2949 15.26134655316688
STARLINK-1464,45751,53.0521,0.0002165,15.44102768,432.5408562373359,435.4905183509345,1 45751U 20038X   26068.63203598  .00086712  00000+0  18543-2 0  9999,2 45751  53.0521 204.9004 0002165 268.0966  91.9792 15.44102768316645
STARLINK-1477,45754,53.0515,5.98e-05,15.14348726,522.5437953664696,523.3691661467692,1 45754U 20038AA  26068.63330424  .00035702  00000+0  19315-2 0  9992,2 45754  53.0515 213.2201 0000598  95.7123 264.3937 15.14348726316528
STARLINK-1478,45755,53.0519,0.0003392,15.55038308,399.74143855708644,404.34111149886485,1 45755U 20038AB  26068.63332602  .00114162  00000+0  16531-2 0  9998,2 45755  53.0519 198.1629 0003392 240.0104 120.0570 15.55038308316727
STARLINK-1484,45756,52.9979,0.0005626,16.0379536,260.1822813292674,267.6559228553424,1 45756U 20038AC  26068.83204623  .00568114  16178-3  86924-3 0  9993,2 45756  52.9979  55.8170 0005626  70.5116 289.6522 16.03795360318720
STARLINK-1493,45759,53.0528,0.0001788,15.50269199,414.72466226411234,417.1542240001763,1 45759U 20038AF  26068.83668696  .00110292  00000+0  18977-2 0  9995,2 45759  53.0528 203.7959 0001788  33.7691 326.3430 15.50269199316663
STARLINK-1494,45760,53.048,0.0005412,15.73709706,344.6650207236298,351.94572194636294,1 45760U 20038AG  26068.49716211  .00096828  00000+0  67102-3 0  9999,2 45760  53.0480 152.5788 0005412   2.9213 357.1836 15.73709706317367
STARLINK-1502,45764,53.0523,0.0002729,15.47123466,423.28920920960627,427.0024409755415,1 45764U 20038AL  26068.68657557  .00093492  00000+0  18008-2 0  9995,2 45764  53.0523 206.0601 0002729  10.3487 349.7575 15.47123466316632
STARLINK-1470,45772,53.048,0.0002444,15.2807486,479.89119525075785,483.2442189115791,1 45772U 20038AU  26068.60892913  .00054678  00000+0  19687-2 0  9990,2 45772  53.0480 174.6971 0002444  12.8687 347.2373 15.28074860317065
STARLINK-1482,45773,53.1615,0.0001327,15.30192757,474.32725310763726,476.1461384865024,1 45773U 20038AV  26068.61568733  .00000091  00000+0  15205-4 0  9996,2 45773  53.1615 191.3633 0001327  89.6348 270.4805 15.30192757316833
STARLINK-1496,45780,53.0508,0.0003363,15.48340426,419.29379695105945,423.86728696978207,1 45780U 20038BC  26068.91668981  .00029705  00000+0  55858-3 0  9993,2 45780  53.0508 176.7364 0003363 215.0002 237.6192 15.48340426  5840
STARLINK-1513,45786,53.1601,9.51e-05,15.30234927,474.4590418121106,475.76252954094616,1 45786U 20038BJ  26068.62517786  .00011742  00000+0  40750-3 0  9990,2 45786  53.1601 191.4505 0000951 101.2977 258.8131 15.30234927316830
STARLINK-1522,46027,53.063,0.0001669,15.09084623,537.841305861597,540.1502447819985,1 46027U 20055A   26068.48298010  .00011893  00000+0  75896-3 0  9994,2 46027  53.0630 127.4122 0001669  68.2219 291.8949 15.09084623308851
STARLINK-1523,46028,53.1052,9.58e-05,15.1878215,508.8602734412043,510.17994854367043,1 46028U 20055B   26068.91668981  .00080356  00000+0  37901-2 0  9995,2 46028  53.1052 125.2072 0000958 119.3961 137.4461 15.18782150  5738
STARLINK-1526,46029,53.1066,2.94e-05,15.19022642,508.590645800341,508.9955972914877,1 46029U 20055C   26068.91668981  .00080419  00000+0  37667-2 0  9995,2 46029  53.1066 125.1743 0000294 131.7853 182.5802 15.19022642  5687
STARLINK-1555,46032,53.1045,7.56e-05,15.18536997,509.74062487672836,510.782150712962,1 46032U 20055F   26068.91668981  .00080839  00000+0  38395-2 0  9994,2 46032  53.1045 125.2559 0000756  91.6468 257.6083 15.18536997  5635
STARLINK-1556,46033,53.1087,0.0002057,15.19504949,505.919379552146,508.752063029684,1 46033U 20055G   26068.91668981  .00085157  00000+0  39299-2 0  9997,2 46033  53.1087 125.1901 0002057  71.3328  54.9043 15.19504949  5736
STARLINK-1557,46034,53.1128,0.0002174,15.20271008,503.5260851077983,506.51888285143195,1 46034U 20055H   26068.91668981  .00085861  00000+0  38748-2 0  9998,2 46034  53.1128 125.1242 0002174  74.9941  67.0902 15.20271008  5773
STARLINK-1558,46035,53.1053,8.61e-05,15.18343758,510.2526897732114,511.43897261674374,1 46035U 20055J   26068.91668981  .01157179  00000+0  51198-1 0  9995,2 46035  53.1053 125.2720 0000861  55.0868 325.3612 15.18343758  5735
